STARLINK-4353           
1 53214U 22084AB  25179.60409039 -.00000190  00000+0 -10161-4 0  9990
2 53214  97.6551 241.0486 0003979 158.9954 201.1434 15.01258928161198
STARLINK-4335           
1 53215U 22084AC  25179.59483379  .00001158  00000+0  94705-4 0  9997
2 53215  97.6580 241.0449 0002280 132.8047 227.3369 15.01259680161719
STARLINK-4376           
1 53216U 22084AD  25179.60039147 -.00000085  00000+0 -19998-5 0  9992
2 53216  97.6553 241.0448 0003155 123.6209 236.5317 15.01259524161193
STARLINK-4384           
1 53218U 22084AF  25179.78713817 -.00219582  00000+0 -18420-1 0  9995
2 53218  97.6538 241.2644 0004973 181.2522 178.8690 14.99565220161231
STARLINK-4373           
1 53219U 22084AG  25179.45412185  .00000870  00000+0  72339-4 0  9992
2 53219  97.6564 240.9152 0001817  92.7855 267.3577 15.01261592161170
STARLINK-4363           
1 53220U 22084AH  25179.72629930 -.00000520  00000+0 -35883-4 0  9999
2 53220  97.6580 241.1773 0002590 148.1447 211.9934 15.01247592161226
STARLINK-4377           
1 53221U 22084AJ  25179.78553309  .00000252  00000+0  24241-4 0  9998
2 53221  97.6565 241.2425 0001164  97.4395 262.6961 15.01259775161228
STARLINK-4356           
1 53224U 22084AM  25179.58928205 -.00000246  00000+0 -14583-4 0  9993
2 53224  97.6572 241.0469 0001453  91.0173 269.1217 15.01258374161196
STARLINK-4358           
1 53225U 22084AN  25179.51337001  .00000417  00000+0  37048-4 0  9994
2 53225  97.6558 240.9766 0002303  82.2778 277.8708 15.01260924161181
STARLINK-4359           
1 53226U 22084AP  25179.17825451  .00000520  00000+0  45088-4 0  9996
2 53226  97.6551 240.6602 0002322  91.4086 268.7404 15.01262645161135
STARLINK-4366           
1 53227U 22084AQ  25179.83335648 -.00046531  00000+0 -36388-2 0  9999
2 53227  97.6535 241.2918 0003270  82.8987 265.5363 15.01289547161221
STARLINK-4365           
1 53228U 22084AR  25179.58187377  .00000135  00000+0  15114-4 0  9990
2 53228  97.6562 241.0436 0001866  91.6340 268.5098 15.01260191161193
STARLINK-4367           
1 53229U 22084AS  25179.70962115 -.00000808  00000+0 -58343-4 0  9996
2 53229  97.6548 241.1706 0002572  87.3992 272.7526 15.01259088161218
STARLINK-4364           
1 53230U 22084AT  25179.58372686  .00000378  00000+0  34060-4 0  9992
2 53230  97.6563 241.0320 0001821  92.8257 267.3176 15.01261038161195
