[
  {
    "OBJECT_NAME": "STARLINK-4353",
    "OBJECT_ID": "2022-084AB",
    "EPOCH": "2025-06-28T14:29:53.409696",
    "MEAN_MOTION": 15.01258928,
    "ECCENTRICITY": 0.0003979,
    "INCLINATION": 97.6551,
    "RA_OF_ASC_NODE": 241.0486,
    "ARG_OF_PERICENTER": 158.9954,
    "MEAN_ANOMALY": 201.1434,
    "EPHEMERIS_TYPE": 0,
    "CLASSIFICATION_TYPE": "U",
    "NORAD_CAT_ID": 53214,
    "ELEMENT_SET_NO": 999,
    "REV_AT_EPOCH": 16119,
    "BSTAR": -1.0161e-05,
    "MEAN_MOTION_DOT": -1.9e-06,
    "MEAN_MOTION_DDOT": 0
  },
  {
    "OBJECT_NAME": "STARLINK-4335",
    "OBJECT_ID": "2022-084AC",
    "EPOCH": "2025-06-28T14:16:33.639456",
    "MEAN_MOTION": 15.0125968,
    "ECCENTRICITY": 0.000228,
    "INCLINATION": 97.658,
    "RA_OF_ASC_NODE": 241.0449,
    "ARG_OF_PERICENTER": 132.8047,
    "MEAN_ANOMALY": 227.3369,
    "EPHEMERIS_TYPE": 0,
    "CLASSIFICATION_TYPE": "U",
    "NORAD_CAT_ID": 53215,
    "ELEMENT_SET_NO": 999,
    "REV_AT_EPOCH": 16171,
    "BSTAR": 9.4705e-05,
    "MEAN_MOTION_DOT": 1.158e-05,
    "MEAN_MOTION_DDOT": 0
  },
  {
    "OBJECT_NAME": "STARLINK-4376",
    "OBJECT_ID": "2022-084AD",
    "EPOCH": "2025-06-28T14:24:33.823008",
    "MEAN_MOTION": 15.01259524,
    "ECCENTRICITY": 0.0003155,
    "INCLINATION": 97.6553,
    "RA_OF_ASC_NODE": 241.0448,
    "ARG_OF_PERICENTER": 123.6209,
    "MEAN_ANOMALY": 236.5317,
    "EPHEMERIS_TYPE": 0,
    "CLASSIFICATION_TYPE": "U",
    "NORAD_CAT_ID": 53216,
    "ELEMENT_SET_NO": 999,
    "REV_AT_EPOCH": 16119,
    "BSTAR": -1.9998e-06,
    "MEAN_MOTION_DOT": -8.5e-07,
    "MEAN_MOTION_DDOT": 0
  },
  {
    "OBJECT_NAME": "STARLINK-4384",
    "OBJECT_ID": "2022-084AF",
    "EPOCH": "2025-06-28T18:53:28.737888",
    "MEAN_MOTION": 14.9956522,
    "ECCENTRICITY": 0.0004973,
    "INCLINATION": 97.6538,
    "RA_OF_ASC_NODE": 241.2644,
    "ARG_OF_PERICENTER": 181.2522,
    "MEAN_ANOMALY": 178.869,
    "EPHEMERIS_TYPE": 0,
    "CLASSIFICATION_TYPE": "U",
    "NORAD_CAT_ID": 53218,
    "ELEMENT_SET_NO": 999,
    "REV_AT_EPOCH": 16123,
    "BSTAR": -0.01842,
    "MEAN_MOTION_DOT": -0.00219582,
    "MEAN_MOTION_DDOT": 0
  },
  {
    "OBJECT_NAME": "STARLINK-4373",
    "OBJECT_ID": "2022-084AG",
    "EPOCH": "2025-06-28T10:53:56.127840",
    "MEAN_MOTION": 15.01261592,
    "ECCENTRICITY": 0.0001817,
    "INCLINATION": 97.6564,
    "RA_OF_ASC_NODE": 240.9152,
    "ARG_OF_PERICENTER": 92.7855,
    "MEAN_ANOMALY": 267.3577,
    "EPHEMERIS_TYPE": 0,
    "CLASSIFICATION_TYPE": "U",
    "NORAD_CAT_ID": 53219,
    "ELEMENT_SET_NO": 999,
    "REV_AT_EPOCH": 16117,
    "BSTAR": 7.2339e-05,
    "MEAN_MOTION_DOT": 8.7e-06,
    "MEAN_MOTION_DDOT": 0
  },
  {
    "OBJECT_NAME": "STARLINK-4363",
    "OBJECT_ID": "2022-084AH",
    "EPOCH": "2025-06-28T17:25:52.259520",
    "MEAN_MOTION": 15.01247592,
    "ECCENTRICITY": 0.000259,
    "INCLINATION": 97.658,
    "RA_OF_ASC_NODE": 241.1773,
    "ARG_OF_PERICENTER": 148.1447,
    "MEAN_ANOMALY": 211.9934,
    "EPHEMERIS_TYPE": 0,
    "CLASSIFICATION_TYPE": "U",
    "NORAD_CAT_ID": 53220,
    "ELEMENT_SET_NO": 999,
    "REV_AT_EPOCH": 16122,
    "BSTAR": -3.5883e-05,
    "MEAN_MOTION_DOT": -5.2e-06,
    "MEAN_MOTION_DDOT": 0
  },
  {
    "OBJECT_NAME": "STARLINK-4377",
    "OBJECT_ID": "2022-084AJ",
    "EPOCH": "2025-06-28T18:51:10.058976",
    "MEAN_MOTION": 15.01259775,
    "ECCENTRICITY": 0.0001164,
    "INCLINATION": 97.6565,
    "RA_OF_ASC_NODE": 241.2425,
    "ARG_OF_PERICENTER": 97.4395,
    "MEAN_ANOMALY": 262.6961,
    "EPHEMERIS_TYPE": 0,
    "CLASSIFICATION_TYPE": "U",
    "NORAD_CAT_ID": 53221,
    "ELEMENT_SET_NO": 999,
    "REV_AT_EPOCH": 16122,
    "BSTAR": 2.4241e-05,
    "MEAN_MOTION_DOT": 2.52e-06,
    "MEAN_MOTION_DDOT": 0
  },
  {
    "OBJECT_NAME": "STARLINK-4356",
    "OBJECT_ID": "2022-084AM",
    "EPOCH": "2025-06-28T14:08:33.969120",
    "MEAN_MOTION": 15.01258374,
    "ECCENTRICITY": 0.0001453,
    "INCLINATION": 97.6572,
    "RA_OF_ASC_NODE": 241.0469,
    "ARG_OF_PERICENTER": 91.0173,
    "MEAN_ANOMALY": 269.1217,
    "EPHEMERIS_TYPE": 0,
    "CLASSIFICATION_TYPE": "U",
    "NORAD_CAT_ID": 53224,
    "ELEMENT_SET_NO": 999,
    "REV_AT_EPOCH": 16119,
    "BSTAR": -1.4583e-05,
    "MEAN_MOTION_DOT": -2.46e-06,
    "MEAN_MOTION_DDOT": 0
  },
  {
    "OBJECT_NAME": "STARLINK-4358",
    "OBJECT_ID": "2022-084AN",
    "EPOCH": "2025-06-28T12:19:15.168864",
    "MEAN_MOTION": 15.01260924,
    "ECCENTRICITY": 0.0002303,
    "INCLINATION": 97.6558,
    "RA_OF_ASC_NODE": 240.9766,
    "ARG_OF_PERICENTER": 82.2778,
    "MEAN_ANOMALY": 277.8708,
    "EPHEMERIS_TYPE": 0,
    "CLASSIFICATION_TYPE": "U",
    "NORAD_CAT_ID": 53225,
    "ELEMENT_SET_NO": 999,
    "REV_AT_EPOCH": 16118,
    "BSTAR": 3.7048e-05,
    "MEAN_MOTION_DOT": 4.17e-06,
    "MEAN_MOTION_DDOT": 0
  },
  {
    "OBJECT_NAME": "STARLINK-4359",
    "OBJECT_ID": "2022-084AP",
    "EPOCH": "2025-06-28T04:16:41.189664",
    "MEAN_MOTION": 15.01262645,
    "ECCENTRICITY": 0.0002322,
    "INCLINATION": 97.6551,
    "RA_OF_ASC_NODE": 240.6602,
    "ARG_OF_PERICENTER": 91.4086,
    "MEAN_ANOMALY": 268.7404,
    "EPHEMERIS_TYPE": 0,
    "CLASSIFICATION_TYPE": "U",
    "NORAD_CAT_ID": 53226,
    "ELEMENT_SET_NO": 999,
    "REV_AT_EPOCH": 16113,
    "BSTAR": 4.5088e-05,
    "MEAN_MOTION_DOT": 5.2e-06,
    "MEAN_MOTION_DDOT": 0
  },
  {
    "OBJECT_NAME": "STARLINK-4366",
    "OBJECT_ID": "2022-084AQ",
    "EPOCH": "2025-06-28T20:00:01.999872",
    "MEAN_MOTION": 15.01289547,
    "ECCENTRICITY": 0.000327,
    "INCLINATION": 97.6535,
    "RA_OF_ASC_NODE": 241.2918,
    "ARG_OF_PERICENTER": 82.8987,
    "MEAN_ANOMALY": 265.5363,
    "EPHEMERIS_TYPE": 0,
    "CLASSIFICATION_TYPE": "U",
    "NORAD_CAT_ID": 53227,
    "ELEMENT_SET_NO": 999,
    "REV_AT_EPOCH": 16122,
    "BSTAR": -0.0036388,
    "MEAN_MOTION_DOT": -0.00046531,
    "MEAN_MOTION_DDOT": 0
  },
  {
    "OBJECT_NAME": "STARLINK-4365",
    "OBJECT_ID": "2022-084AR",
    "EPOCH": "2025-06-28T13:57:53.893728",
    "MEAN_MOTION": 15.01260191,
    "ECCENTRICITY": 0.0001866,
    "INCLINATION": 97.6562,
    "RA_OF_ASC_NODE": 241.0436,
    "ARG_OF_PERICENTER": 91.634,
    "MEAN_ANOMALY": 268.5098,
    "EPHEMERIS_TYPE": 0,
    "CLASSIFICATION_TYPE": "U",
    "NORAD_CAT_ID": 53228,
    "ELEMENT_SET_NO": 999,
    "REV_AT_EPOCH": 16119,
    "BSTAR": 1.5114e-05,
    "MEAN_MOTION_DOT": 1.35e-06,
    "MEAN_MOTION_DDOT": 0
  },
  {
    "OBJECT_NAME": "STARLINK-4367",
    "OBJECT_ID": "2022-084AS",
    "EPOCH": "2025-06-28T17:01:51.267360",
    "MEAN_MOTION": 15.01259088,
    "ECCENTRICITY": 0.0002572,
    "INCLINATION": 97.6548,
    "RA_OF_ASC_NODE": 241.1706,
    "ARG_OF_PERICENTER": 87.3992,
    "MEAN_ANOMALY": 272.7526,
    "EPHEMERIS_TYPE": 0,
    "CLASSIFICATION_TYPE": "U",
    "NORAD_CAT_ID": 53229,
    "ELEMENT_SET_NO": 999,
    "REV_AT_EPOCH": 16121,
    "BSTAR": -5.8343e-05,
    "MEAN_MOTION_DOT": -8.08e-06,
    "MEAN_MOTION_DDOT": 0
  },
  {
    "OBJECT_NAME": "STARLINK-4364",
    "OBJECT_ID": "2022-084AT",
    "EPOCH": "2025-06-28T14:00:34.000704",
    "MEAN_MOTION": 15.01261038,
    "ECCENTRICITY": 0.0001821,
    "INCLINATION": 97.6563,
    "RA_OF_ASC_NODE": 241.032,
    "ARG_OF_PERICENTER": 92.8257,
    "MEAN_ANOMALY": 267.3176,
    "EPHEMERIS_TYPE": 0,
    "CLASSIFICATION_TYPE": "U",
    "NORAD_CAT_ID": 53230,
    "ELEMENT_SET_NO": 999,
    "REV_AT_EPOCH": 16119,
    "BSTAR": 3.406e-05,
    "MEAN_MOTION_DOT": 3.78e-06,
    "MEAN_MOTION_DDOT": 0
  }
]